ONEWEB-0578             
1 56067U 23043X   26002.17675223  .00000061  00000+0  11700-3 0  9997
2 56067  87.9227 277.0876 0001529  83.4817 276.6491 13.21825724136309
ONEWEB-0579             
1 56068U 23043Y   26002.16685049  .00000106  00000+0  22513-3 0  9998
2 56068  87.9231 277.0773 0001670  66.1425 293.9884 13.21824400136310
ONEWEB-0581             
1 56069U 23043Z   26002.17290343  .00000144  00000+0  34332-3 0  9993
2 56069  87.9044 261.8388 0001935  75.4630 284.6715 13.16593816137118
ONEWEB-0609             
1 56070U 23043AA  26002.30272801 -.00000055  00000+0 -18059-3 0  9990
2 56070  87.9009 292.3240 0001614  75.4490 284.6819 13.15548287134624
ONEWEB-0613             
1 56071U 23043AB  26002.29797005 -.00000061  00000+0 -19732-3 0  9993
2 56071  87.9006 292.3365 0001638  66.1765 293.9537 13.15548095134625
ONEWEB-0630             
1 56072U 23043AC  26002.21715681 -.00000081  00000+0 -24977-3 0  9995
2 56072  87.9005 292.3236 0001656  64.3132 295.8170 13.15547497134607
ONEWEB-0632             
1 56073U 23043AD  26002.21240481 -.00000139  00000+0 -40223-3 0  9993
2 56073  87.9004 292.3421 0001861  73.5953 286.5382 13.15549426134600
ONEWEB-0633             
1 56074U 23043AE  26002.20606840 -.00000038  00000+0 -13546-3 0  9994
2 56074  87.9007 292.3067 0001491  62.4711 297.6571 13.15547807134589
